{
  "type": "FeatureCollection",
  "features": [
    {
      "type": "Feature",
      "properties": {
        "id": "zone.1775440719797.4598",
        "type": "no_go",
        "enabled": true
      },
      "geometry": {
        "type": "Polygon",
        "coordinates": [
          [
            [
              -64.24068287014961,
              -31.486276066788182
            ],
            [
              -64.2406989634037,
              -31.48562189820074
            ],
            [
              -64.241291731596,
              -31.485617323579124
            ],
            [
              -64.24128234386446,
              -31.486281785024904
            ],
            [
              -64.24068287014961,
              -31.486276066788182
            ]
          ]
        ]
      }
    },
    {
      "type": "Feature",
      "properties": {
        "id": "zone.1775264044685.4052",
        "type": "no_go",
        "enabled": true
      },
      "geometry": {
        "type": "Polygon",
        "coordinates": [
          [
            [
              -64.24164444208147,
              -31.48627034855112
            ],
            [
              -64.23844993114473,
              -31.48628635961403
            ],
            [
              -64.23844993114473,
              -31.48621316616125
            ],
            [
              -64.23802614212038,
              -31.486215453457515
            ],
            [
              -64.2380315065384,
              -31.486565409127362
            ],
            [
              -64.24164175987245,
              -31.48655397268826
            ],
            [
              -64.24164444208147,
              -31.48627034855112
            ]
          ]
        ]
      }
    },
    {
      "type": "Feature",
      "properties": {
        "id": "zone_1",
        "type": "no_go",
        "enabled": true
      },
      "geometry": {
        "type": "Polygon",
        "coordinates": [
          [
            [
              -64.24119517207147,
              -31.485740838284155
            ],
            [
              -64.24097254872324,
              -31.485713390586028
            ],
            [
              -64.24083307385445,
              -31.485657351510657
            ],
            [
              -64.24070835113527,
              -31.485656207855712
            ],
            [
              -64.24068957567216,
              -31.486199442382482
            ],
            [
              -64.23802614212038,
              -31.486212022513094
            ],
            [
              -64.2380127310753,
              -31.485552135196837
            ],
            [
              -64.24163103103639,
              -31.48559926573681
            ],
            [
              -64.24164846539499,
              -31.486215448556397
            ],
            [
              -64.24077942967416,
              -31.48621771624816
            ],
            [
              -64.2407874763012,
              -31.485743125591974
            ],
            [
              -64.24084782600404,
              -31.485741018156034
            ],
            [
              -64.24101412296297,
              -31.485770573281386
            ],
            [
              -64.24101144075395,
              -31.485827755941795
            ],
            [
              -64.24124211072923,
              -31.485835761511463
            ],
            [
              -64.24124479293825,
              -31.48578315346967
            ],
            [
              -64.24122601747514,
              -31.485749987515078
            ],
            [
              -64.24119517207147,
              -31.485740838284155
            ]
          ]
        ]
      }
    }
  ]
}
